NORAD_CAT_ID,OBJECT_NAME,OBJECT_TYPE,EPOCH,MEAN_MOTION,ECCENTRICITY,INCLINATION,RA_OF_ASC_NODE,ARG_OF_PERICENTER,MEAN_ANOMALY,BSTAR,MEAN_MOTION_DOT,MEAN_MOTION_DDOT,TLE_LINE0,TLE_LINE1,TLE_LINE2,SEMIMAJOR_AXIS,PERIOD,APOGEE,PERIGEE,DECAYED
53601.0,STARLINK-4675,PAYLOAD,2024-03-04 20:48:37,15.08830006,0.0001532,53.217,302.7222,109.9767,250.139,-0.00013289,-2.402e-05,0.0,0 STARLINK-4675,1 53601U 22104P   24064.86710090 -.00002402  00000-0 -13289-3 0  9997,2 53601  53.2170 302.7222 0001532 109.9767 250.1390 15.08830006 83993,6917.911,95.438,540.836,538.716,0.0
53601.0,STARLINK-4675,PAYLOAD,2024-03-04 22:24:00,15.08828174,0.0001499,53.2167,302.4253,109.7661,250.3493,-0.00013516,-2.438e-05,0.0,0 STARLINK-4675,1 53601U 22104P   24064.93334237 -.00002438  00000-0 -13516-3 0  9992,2 53601  53.2167 302.4253 0001499 109.7661 250.3493 15.08828174 84690,6917.917,95.438,540.819,538.745,0.0
53601.0,STARLINK-4675,PAYLOAD,2024-03-05 01:34:47,15.08831929,0.0001435,53.2173,301.8299,110.9145,249.2001,-5.9656e-05,-1.237e-05,0.0,0 STARLINK-4675,1 53601U 22104P   24065.06582458 -.00001237  00000-0 -59656-4 0  9999,2 53601  53.2173 301.8299 0001435 110.9145 249.2001 15.08831929 84718,6917.905,95.438,540.763,538.777,0.0
53601.0,STARLINK-4675,PAYLOAD,2024-03-05 20:39:24,15.08841608,0.0001572,53.2173,298.2622,116.1066,244.0088,0.00019222,2.773e-05,0.0,0 STARLINK-4675,1 53601U 22104P   24065.86069846  .00002773  00000-0  19222-3 0  9996,2 53601  53.2173 298.2622 0001572 116.1066 244.0088 15.08841608 84149,6917.875,95.437,540.828,538.653,0.0
53601.0,STARLINK-4675,PAYLOAD,2024-03-06 18:54:48,15.08839493,0.0001627,53.2178,294.0993,119.8666,240.2488,0.00024198,3.565e-05,0.0,0 STARLINK-4675,1 53601U 22104P   24066.78806054  .00003565  00000-0  24198-3 0  9996,2 53601  53.2178 294.0993 0001627 119.8666 240.2488 15.08839493 84282,6917.882,95.438,540.872,538.621,0.0
53601.0,STARLINK-4675,PAYLOAD,2024-03-07 07:37:53,15.08845132,0.0001315,53.2173,291.7219,88.9208,271.1934,0.00017364,2.477e-05,0.0,0 STARLINK-4675,1 53601U 22104P   24067.31797918  .00002477  00000-0  17364-3 0  9992,2 53601  53.2173 291.7219 0001315  88.9208 271.1934 15.08845132 85056,6917.865,95.437,540.639,538.82,0.0
53601.0,STARLINK-4675,PAYLOAD,2024-03-08 07:28:40,15.08849907,0.0001466,53.2177,287.2623,82.2231,277.8928,0.00015402,2.165e-05,0.0,0 STARLINK-4675,1 53601U 22104P   24068.31157590  .00002165  00000-0  15402-3 0  9994,2 53601  53.2177 287.2623 0001466  82.2231 277.8928 15.08849907 84519,6917.85,95.437,540.729,538.701,0.0
53601.0,STARLINK-4675,PAYLOAD,2024-03-08 23:22:32,15.08835154,0.0001407,53.2171,284.288,83.4351,276.6801,-3.1364e-05,-7.87e-06,0.0,0 STARLINK-4675,1 53601U 22104P   24068.97398271 -.00000787  00000-0 -31364-4 0  9995,2 53601  53.2171 284.2880 0001407  83.4351 276.6801 15.08835154 84613,6917.895,95.438,540.734,538.787,0.0
53601.0,STARLINK-4675,PAYLOAD,2024-03-09 07:19:27,15.08844375,0.0001393,53.2164,282.8009,86.3424,273.7727,9.2691e-05,1.188e-05,0.0,0 STARLINK-4675,1 53601U 22104P   24069.30517783  .00001188  00000-0  92691-4 0  9998,2 53601  53.2164 282.8009 0001393  86.3424 273.7727 15.08844375 84664,6917.867,95.437,540.696,538.768,0.0
53601.0,STARLINK-4675,PAYLOAD,2024-03-10 07:10:14,15.08843947,0.0001287,53.2163,278.3385,83.9177,276.1961,5.6033e-05,6.04e-06,0.0,0 STARLINK-4675,1 53601U 22104P   24070.29877788  .00000604  00000-0  56033-4 0  9994,2 53601  53.2163 278.3385 0001287  83.9177 276.1961 15.08843947 85505,6917.868,95.437,540.624,538.843,0.0
53601.0,STARLINK-4675,PAYLOAD,2024-03-10 19:53:20,15.08834722,0.0001515,53.2164,275.9589,85.2715,274.845,7.2094e-05,8.59e-06,0.0,0 STARLINK-4675,1 53601U 22104P   24070.82870619  .00000859  00000-0  72094-4 0  9996,2 53601  53.2164 275.9589 0001515  85.2715 274.8450 15.08834722 84892,6917.897,95.438,540.81,538.713,0.0
53601.0,STARLINK-4675,PAYLOAD,2024-03-11 13:22:34,15.08841862,0.0001384,53.2159,272.6891,88.7832,271.3319,9.0495e-05,1.153e-05,0.0,0 STARLINK-4675,1 53601U 22104P   24071.55734163  .00001153  00000-0  90495-4 0  9993,2 53601  53.2159 272.6891 0001384  88.7832 271.3319 15.08841862 85696,6917.875,95.437,540.697,538.782,0.0
53601.0,STARLINK-4675,PAYLOAD,2024-03-11 19:44:06,15.08843285,0.0001194,53.2165,271.4996,92.0225,268.0904,9.768e-05,1.267e-05,0.0,0 STARLINK-4675,1 53601U 22104P   24071.82229946  .00001267  00000-0  97680-4 0  9990,2 53601  53.2165 271.4996 0001194  92.0225 268.0904 15.08843285 85042,6917.87,95.437,540.561,538.909,0.0
53601.0,STARLINK-4675,PAYLOAD,2024-03-12 13:13:21,15.08839192,0.0001537,53.2148,268.2287,87.9127,272.2041,0.00012504,1.703e-05,0.0,0 STARLINK-4675,1 53601U 22104P   24072.55094313  .00001703  00000-0  12504-3 0  9995,2 53601  53.2148 268.2287 0001537  87.9127 272.2041 15.08839192 85158,6917.883,95.438,540.811,538.685,0.0
53601.0,STARLINK-4675,PAYLOAD,2024-03-12 19:34:54,15.0882354,0.0001523,53.2169,267.0396,95.8718,264.2448,0.00036685,5.553e-05,0.0,0 STARLINK-4675,1 53601U 22104P   24072.81591131  .00005553  00000-0  36685-3 0  9997,2 53601  53.2169 267.0396 0001523  95.8718 264.2448 15.08823540 85880,6917.931,95.439,540.849,538.742,0.0
53601.0,STARLINK-4675,PAYLOAD,2024-03-13 13:04:08,15.08839577,0.0001324,53.2159,263.7678,93.1069,267.0075,7.0344e-05,8.32e-06,0.0,0 STARLINK-4675,1 53601U 22104P   24073.54454486  .00000832  00000-0  70344-4 0  9995,2 53601  53.2159 263.7678 0001324  93.1069 267.0075 15.08839577 85305,6917.882,95.438,540.663,538.831,0.0
53601.0,STARLINK-4675,PAYLOAD,2024-03-14 04:57:57,15.08864256,0.0001746,53.2203,260.7959,95.5173,264.6018,0.00025554,3.784e-05,0.0,0 STARLINK-4675,1 53601U 22104P   24074.20692047  .00003784  00000-0  25554-3 0  9997,2 53601  53.2203 260.7959 0001746  95.5173 264.6018 15.08864256 85407,6917.806,95.436,540.879,538.463,0.0
53601.0,STARLINK-4675,PAYLOAD,2024-03-14 12:54:56,15.08820889,0.0001478,53.2164,259.3088,102.7311,257.3846,-8.2445e-05,-1.599e-05,0.0,0 STARLINK-4675,1 53601U 22104P   24074.53815183 -.00001599  00000-0 -82445-4 0  9998,2 53601  53.2164 259.3088 0001478 102.7311 257.3846 15.08820889 85454,6917.939,95.439,540.826,538.781,0.0
53601.0,STARLINK-4675,PAYLOAD,2024-03-14 19:16:29,15.08819682,0.0001167,53.2178,258.1196,100.3522,259.7601,-9.2025e-05,-1.751e-05,0.0,0 STARLINK-4675,1 53601U 22104P   24074.80311539 -.00001751  00000-0 -92025-4 0  9999,2 53601  53.2178 258.1196 0001167 100.3522 259.7601 15.08819682 86184,6917.942,95.439,540.615,539.0,0.0
53601.0,STARLINK-4675,PAYLOAD,2024-03-15 22:17:57,15.08904471,0.0001818,53.2166,253.062,135.1145,224.9994,-0.0022152,-0.00035433,0.0,0 STARLINK-4675,1 53601U 22104P   24075.92913796 -.00035433  00000-0 -22152-2 0  9992,2 53601  53.2166 253.0620 0001818 135.1145 224.9994 15.08904471 86356,6917.683,95.433,540.806,538.291,0.0
53601.0,STARLINK-4675,PAYLOAD,2024-03-16 20:33:26,15.08840571,0.0001096,53.2152,248.8985,105.5982,254.5131,0.00040103,6.1e-05,0.0,0 STARLINK-4675,1 53601U 22104P   24076.85655133  .00006100  00000-0  40103-3 0  9997,2 53601  53.2152 248.8985 0001096 105.5982 254.5131 15.08840571 85806,6917.879,95.438,540.502,538.985,0.0
53601.0,STARLINK-4675,PAYLOAD,2024-03-17 10:51:54,15.08843582,0.0001196,53.2154,246.2221,97.4289,262.6839,0.00026174,3.881e-05,0.0,0 STARLINK-4675,1 53601U 22104P   24077.45271083  .00003881  00000-0  26174-3 0  9997,2 53601  53.2154 246.2221 0001196  97.4289 262.6839 15.08843582 86589,6917.869,95.437,540.562,538.907,0.0
53601.0,STARLINK-4675,PAYLOAD,2024-03-17 18:48:49,15.08847937,0.0001175,53.2156,244.7358,95.7202,264.3924,0.00027369,4.072e-05,0.0,0 STARLINK-4675,1 53601U 22104P   24077.78390865  .00004072  00000-0  27369-3 0  9993,2 53601  53.2156 244.7358 0001175  95.7202 264.3924 15.08847937 86636,6917.856,95.437,540.534,538.908,0.0
53601.0,STARLINK-4675,PAYLOAD,2024-03-19 13:44:14,15.08845031,0.0001456,53.2161,236.7099,74.1297,285.9856,0.00021685,3.165e-05,0.0,0 STARLINK-4675,1 53601U 22104P   24079.57239249  .00003165  00000-0  21685-3 0  9997,2 53601  53.2161 236.7099 0001456  74.1297 285.9856 15.08845031 86212,6917.865,95.437,540.737,538.723,0.0
53601.0,STARLINK-4675,PAYLOAD,2024-03-20 10:24:15,15.08846377,0.0001329,53.2159,232.8412,105.1639,254.95,0.00012423,1.69e-05,0.0,0 STARLINK-4675,1 53601U 22104P   24080.43351170  .00001690  00000-0  12423-3 0  9993,2 53601  53.2159 232.8412 0001329 105.1639 254.9500 15.08846377 86349,6917.861,95.437,540.645,538.807,0.0
53601.0,STARLINK-4675,PAYLOAD,2024-03-20 13:35:01,15.08843344,0.0001133,53.2154,232.2391,72.2609,287.8507,3.0008e-05,1.9e-06,0.0,0 STARLINK-4675,1 53601U 22104P   24080.56599346  .00000190  00000-0  30008-4 0  9990,2 53601  53.2154 232.2391 0001133  72.2609 287.8507 15.08843344 87050,6917.87,95.437,540.519,538.951,0.0
53601.0,STARLINK-4675,PAYLOAD,2024-03-20 16:45:48,15.08833403,0.0001365,53.216,231.6488,100.6518,259.4628,-7.3964e-05,-1.465e-05,0.0,0 STARLINK-4675,1 53601U 22104P   24080.69847587 -.00001465  00000-0 -73964-4 0  9993,2 53601  53.2160 231.6488 0001365 100.6518 259.4628 15.08833403 86388,6917.901,95.438,540.71,538.821,0.0
53601.0,STARLINK-4675,PAYLOAD,2024-03-21 13:25:48,15.08842429,0.0001296,53.2162,227.7834,94.4757,265.6383,8.4663e-05,1.06e-05,0.0,0 STARLINK-4675,1 53601U 22104P   24081.55959429  .00001060  00000-0  84663-4 0  9995,2 53601  53.2162 227.7834 0001296  94.4757 265.6383 15.08842429 86519,6917.873,95.437,540.635,538.841,0.0
53601.0,STARLINK-4675,PAYLOAD,2024-03-21 16:36:34,15.08847058,0.0001322,53.2173,227.1885,97.2991,262.8151,8.9256e-05,1.133e-05,0.0,0 STARLINK-4675,1 53601U 22104P   24081.69207048  .00001133  00000-0  89256-4 0  9997,2 53601  53.2173 227.1885 0001322  97.2991 262.8151 15.08847058 87226,6917.859,95.437,540.638,538.809,0.0
53601.0,STARLINK-4675,PAYLOAD,2024-03-22 14:51:59,15.08840237,0.0001313,53.2162,223.0282,99.3331,260.781,0.0001889,2.72e-05,0.0,0 STARLINK-4675,1 53601U 22104P   24082.61943377  .00002720  00000-0  18890-3 0  9990,2 53601  53.2162 223.0282 0001313  99.3331 260.7810 15.08840237 87367,6917.88,95.438,540.653,538.836,0.0
